*******************************************************************************
Ephemeris / PORT_LOGIN Sat Nov 26 22:38:41 2011 Pasadena, USA    / Horizons    
*******************************************************************************
Target body name: Mercury (199)                   {source: DE405}
Center body name: Solar System Barycenter (0)     {source: DE405}
Center-site name: BODY CENTER
*******************************************************************************
Start time      : A.D. 2001-Jan-01 10:00:00.0000 CT 
Stop  time      : A.D. 2001-Jan-02 00:00:00.0000 CT 
Step-size       : 60 minutes
*******************************************************************************
Center geodetic : 0.00000000,0.00000000,0.0000000 {E-lon(deg),Lat(deg),Alt(km)}
Center cylindric: 0.00000000,0.00000000,0.0000000 {E-lon(deg),Dxy(km),Dz(km)}
Center radii    : (undefined)                                                  
Output units    : AU-D                                                         
Output format   : 03
Reference frame : ICRF/J2000.0                                                 
Output type     : GEOMETRIC cartesian states
Coordinate systm: Earth Mean Equator and Equinox of Reference Epoch            
*******************************************************************************
JDCT 
   X     Y     Z
   VX    VY    VZ
   LT    RG    RR
*******************************************************************************
$$SOE
2451910.916666667 = A.D. 2001-Jan-01 10:00:00.0000 (CT)
   1.725374275613525E-01 -3.560583302130902E-01 -2.079374067269341E-01
   2.014612072162312E-02  1.197397549682363E-02  4.307664928929651E-03
   2.581499468100722E-03  4.469727771799368E-01 -3.765774197149282E-03
2451910.958333333 = A.D. 2001-Jan-01 11:00:00.0000 (CT)
   1.733763294281474E-01 -3.555583853919796E-01 -2.077573170303977E-01
   2.012114518861809E-02  1.202337218496913E-02  4.336640969114579E-03
   2.580591943089338E-03  4.468156440951885E-01 -3.776612165058592E-03
2451911.000000000 = A.D. 2001-Jan-01 12:00:00.0000 (CT)
   1.742141876844481E-01 -3.550563828435007E-01 -2.075760199415002E-01
   2.009602738676525E-02  1.207274637370590E-02  4.365619745836837E-03
   2.579681811191643E-03  4.466580596420675E-01 -3.787439869191562E-03
2451911.041666667 = A.D. 2001-Jan-01 13:00:00.0000 (CT)
   1.750509963984903E-01 -3.545523235097360E-01 -2.073935153482761E-01
   2.007076712899250E-02  1.212209784170709E-02  4.394601160273472E-03
   2.578769074884704E-03  4.465000242494646E-01 -3.798257250289865E-03
2451911.083333333 = A.D. 2001-Jan-01 14:00:00.0000 (CT)
   1.758867496307051E-01 -3.540462083420127E-01 -2.072098031428888E-01
   2.004536422775510E-02  1.217142636656283E-02  4.423585113072016E-03
   2.577853736659884E-03  4.463415383487458E-01 -3.809064248797721E-03
2451911.125000000 = A.D. 2001-Jan-01 15:00:00.0000 (CT)
   1.767214414336995E-01 -3.535380383009476E-01 -2.070248832216522E-01
   2.001981849503777E-02  1.222073172477393E-02  4.452571504346923E-03
   2.576935799022914E-03  4.461826023737653E-01 -3.819860804860260E-03
2451911.166666667 = A.D. 2001-Jan-01 16:00:00.0000 (CT)
   1.775550658522367E-01 -3.530278143564927E-01 -2.068387554850533E-01
   1.999412974235669E-02  1.227001369174552E-02  4.481560233676002E-03
   2.576015264493965E-03  4.460232167608768E-01 -3.830646858321953E-03
2451911.208333333 = A.D. 2001-Jan-01 17:00:00.0000 (CT)
   1.783876169232168E-01 -3.525155374879813E-01 -2.066514198377749E-01
   1.996829778076162E-02  1.231927204178083E-02  4.510551200096804E-03
   2.575092135607720E-03  4.458633819489474E-01 -3.841422348724981E-03
2451911.250000000 = A.D. 2001-Jan-01 18:00:00.0000 (CT)
   1.792190886756569E-01 -3.520012086841736E-01 -2.064628761887174E-01
   1.994232242083804E-02  1.236850654807474E-02  4.539544302103023E-03
   2.574166414913449E-03  4.457030983793693E-01 -3.852187215307627E-03
2451911.291666667 = A.D. 2001-Jan-01 19:00:00.0000 (CT)
   1.800494751306728E-01 -3.514848289433032E-01 -2.062731244510225E-01
   1.991620347270926E-02  1.241771698270748E-02  4.568539437640855E-03
   2.573238104975080E-03  4.455423664960728E-01 -3.862941397002634E-03
2451911.333333333 = A.D. 2001-Jan-01 20:00:00.0000 (CT)
   1.808787703014588E-01 -3.509663992731238E-01 -2.060821645420954E-01
   1.988994074603861E-02  1.246690311663815E-02  4.597536504105362E-03
   2.572307208371272E-03  4.453811867455392E-01 -3.873684832435600E-03
2451911.375000000 = A.D. 2001-Jan-01 21:00:00.0000 (CT)
   1.817069681932688E-01 -3.504459206909560E-01 -2.058899963836278E-01
   1.986353405003174E-02  1.251606471969837E-02  4.626535398336796E-03
   2.571373727695495E-03  4.452195595768134E-01 -3.884417459923324E-03
2451911.416666667 = A.D. 2001-Jan-01 22:00:00.0000 (CT)
   1.825340628033979E-01 -3.499233942237341E-01 -2.056966199016219E-01
   1.983698319343877E-02  1.256520156058577E-02  4.655536016616928E-03
   2.570437665556094E-03  4.450574854415169E-01 -3.895139217472158E-03
2451911.458333333 = A.D. 2001-Jan-01 23:00:00.0000 (CT)
   1.833600481211627E-01 -3.493988209080541E-01 -2.055020350264127E-01
   1.981028798455666E-02  1.261431340685755E-02  4.684538254665347E-03
   2.569499024576375E-03  4.448949647938606E-01 -3.905850042776372E-03
2451911.500000000 = A.D. 2001-Jan-02 00:00:00.0000 (CT)
   1.841849181278828E-01 -3.488722017902205E-01 -2.053062416926923E-01
   1.978344823123151E-02  1.266340002492394E-02  4.713542007635736E-03
   2.568557807394674E-03  4.447319980906584E-01 -3.916549873216491E-03
$$EOE
*******************************************************************************
Coordinate system description:

  Earth Mean Equator and Equinox of Reference Epoch

    Reference epoch: J2000.0
    xy-plane: plane of the Earth's mean equator at the reference epoch
    x-axis  : out along ascending node of instantaneous plane of the Earth's
              orbit and the Earth's mean equator at the reference epoch
    z-axis  : along the Earth mean north pole at the reference epoch

Symbol meaning [1 AU=149597870.691 km, 1 day=86400.0 s]:

    JDCT     Epoch Julian Date, Coordinate Time
      X      x-component of position vector (AU)                               
      Y      y-component of position vector (AU)                               
      Z      z-component of position vector (AU)                               
      VX     x-component of velocity vector (AU/day)                           
      VY     y-component of velocity vector (AU/day)                           
      VZ     z-component of velocity vector (AU/day)                           
      LT     One-way down-leg Newtonian light-time (day)                       
      RG     Range; distance from coordinate center (AU)                       
      RR     Range-rate; radial velocity wrt coord. center (AU/day)            

Geometric states/elements have no aberration corrections applied.

 Computations by ...
     Solar System Dynamics Group, Horizons On-Line Ephemeris System
     4800 Oak Grove Drive, Jet Propulsion Laboratory
     Pasadena, CA  91109   USA
     Information: http://ssd.jpl.nasa.gov/
     Connect    : telnet://ssd.jpl.nasa.gov:6775  (via browser)
                  telnet ssd.jpl.nasa.gov 6775    (via command-line)
     Author     : Jon.Giorgini@jpl.nasa.gov
*******************************************************************************
